start=new Date('2022-09-30T00:00:00.000Z').valueOf();
sats=[{"OBJECT_TYPE":"PAYLOAD","LAUNCH_DATE":"2020-06-04","CLASSIFICATION_TYPE":"U","EPOCH":"2022-09-29T11:57:35.443296","RA_OF_ASC_NODE":"300.3772","REF_FRAME":"TEME","PERIAPSIS":"546.156","APOAPSIS":"548.257","CENTER_NAME":"EARTH","MEAN_MOTION_DOT":"0.00002034","REV_AT_EPOCH":"12936","EPHEMERIS_TYPE":"0","TIME_SYSTEM":"UTC","MEAN_ELEMENT_THEORY":"SGP4","SEMIMAJOR_AXIS":"6925.342","INCLINATION":"53.0565","NORAD_CAT_ID":"45678","COUNTRY_CODE":"US","FILE":"3586894","ECCENTRICITY":"0.00015170","ARG_OF_PERICENTER":"59.0100","BSTAR":"0.00015537000000","SITE":"AFETR","PERIOD":"95.592","MEAN_MOTION":"15.06402300","ELEMENT_SET_NO":"999","OBJECT_NAME":"STARLINK-1393","MEAN_MOTION_DDOT":"0.0000000000000","OBJECT_ID":"2020-035X","MEAN_ANOMALY":"301.1037","TLE_LINE2":"2 45678  53.0565 300.3772 0001517  59.0100 301.1037 15.06402300129364","GP_ID":"213803064","TLE_LINE1":"1 45678U 20035X   22272.49832689  .00002034  00000-0  15537-3 0  9997","RCS_SIZE":"LARGE","DECAY_DATE":null},{"NORAD_CAT_ID":"45679","COUNTRY_CODE":"US","MEAN_ELEMENT_THEORY":"SGP4","SEMIMAJOR_AXIS":"6925.377","INCLINATION":"53.0544","ECCENTRICITY":"0.00014900","ARG_OF_PERICENTER":"67.2550","FILE":"3587117","RA_OF_ASC_NODE":"299.1669","EPOCH":"2022-09-29T18:25:03.948384","CLASSIFICATION_TYPE":"U","OBJECT_TYPE":"PAYLOAD","LAUNCH_DATE":"2020-06-04","MEAN_MOTION_DOT":"-0.00000350","REV_AT_EPOCH":"12942","EPHEMERIS_TYPE":"0","TIME_SYSTEM":"UTC","REF_FRAME":"TEME","PERIAPSIS":"546.211","APOAPSIS":"548.274","CENTER_NAME":"EARTH","TLE_LINE2":"2 45679  53.0544 299.1669 0001490  67.2550 292.8596 15.06390561129420","GP_ID":"213833234","TLE_LINE1":"1 45679U 20035Y   22272.76740681 -.00000350  00000-0 -45990-5 0  9997","MEAN_ANOMALY":"292.8596","DECAY_DATE":null,"RCS_SIZE":"LARGE","SITE":"AFETR","PERIOD":"95.593","MEAN_MOTION":"15.06390561","ELEMENT_SET_NO":"999","MEAN_MOTION_DDOT":"0.0000000000000","OBJECT_NAME":"STARLINK-1394","BSTAR":"-0.00000459900000","OBJECT_ID":"2020-035Y"},{"MEAN_ELEMENT_THEORY":"SGP4","SEMIMAJOR_AXIS":"6925.401","INCLINATION":"53.0537","NORAD_CAT_ID":"45680","COUNTRY_CODE":"US","FILE":"3586733","ECCENTRICITY":"0.00014590","ARG_OF_PERICENTER":"67.3805","OBJECT_TYPE":"PAYLOAD","LAUNCH_DATE":"2020-06-04","RA_OF_ASC_NODE":"300.3354","CLASSIFICATION_TYPE":"U","EPOCH":"2022-09-29T12:13:31.482624","PERIAPSIS":"546.255","REF_FRAME":"TEME","CENTER_NAME":"EARTH","APOAPSIS":"548.276","EPHEMERIS_TYPE":"0","REV_AT_EPOCH":"12897","MEAN_MOTION_DOT":"-0.00002081","TIME_SYSTEM":"UTC","MEAN_ANOMALY":"292.7338","GP_ID":"213779133","TLE_LINE1":"1 45680U 20035Z   22272.50939216 -.00002081  00000-0 -12090-3 0  9991","TLE_LINE2":"2 45680  53.0537 300.3354 0001459  67.3805 292.7338 15.06382991128979","RCS_SIZE":"LARGE","DECAY_DATE":null,"BSTAR":"-0.00012090000000","MEAN_MOTION":"15.06382991","PERIOD":"95.593","SITE":"AFETR","OBJECT_NAME":"STARLINK-1395","MEAN_MOTION_DDOT":"0.0000000000000","ELEMENT_SET_NO":"999","OBJECT_ID":"2020-035Z"},{"ECCENTRICITY":"0.00016650","ARG_OF_PERICENTER":"66.1497","FILE":"3587117","NORAD_CAT_ID":"45681","COUNTRY_CODE":"US","MEAN_ELEMENT_THEORY":"SGP4","INCLINATION":"53.0550","SEMIMAJOR_AXIS":"6925.390","MEAN_MOTION_DOT":"-0.00000181","REV_AT_EPOCH":"12942","EPHEMERIS_TYPE":"0","TIME_SYSTEM":"UTC","REF_FRAME":"TEME","PERIAPSIS":"546.102","APOAPSIS":"548.408","CENTER_NAME":"EARTH","EPOCH":"2022-09-29T18:30:22.360896","CLASSIFICATION_TYPE":"U","RA_OF_ASC_NODE":"299.1538","OBJECT_TYPE":"PAYLOAD","LAUNCH_DATE":"2020-06-04","DECAY_DATE":null,"RCS_SIZE":"LARGE","TLE_LINE2":"2 45681  53.0550 299.1538 0001665  66.1497 293.9666 15.06386598129422","GP_ID":"213834228","TLE_LINE1":"1 45681U 20035AA  22272.77109214 -.00000181  00000-0  67729-5 0  9997","MEAN_ANOMALY":"293.9666","OBJECT_ID":"2020-035AA","SITE":"AFETR","PERIOD":"95.593","MEAN_MOTION":"15.06386598","ELEMENT_SET_NO":"999","MEAN_MOTION_DDOT":"0.0000000000000","OBJECT_NAME":"STARLINK-1396","BSTAR":"0.00000677290000"},{"EPHEMERIS_TYPE":"0","MEAN_MOTION_DOT":"0.00001633","REV_AT_EPOCH":"12941","TIME_SYSTEM":"UTC","PERIAPSIS":"546.340","REF_FRAME":"TEME","CENTER_NAME":"EARTH","APOAPSIS":"548.111","EPOCH":"2022-09-29T18:40:58.546560","RA_OF_ASC_NODE":"299.1127","CLASSIFICATION_TYPE":"U","OBJECT_TYPE":"PAYLOAD","LAUNCH_DATE":"2020-06-04","ECCENTRICITY":"0.00012790","ARG_OF_PERICENTER":"71.9217","FILE":"3587117","NORAD_CAT_ID":"45682","COUNTRY_CODE":"US","MEAN_ELEMENT_THEORY":"SGP4","INCLINATION":"53.0559","SEMIMAJOR_AXIS":"6925.361","OBJECT_ID":"2020-035AB","MEAN_MOTION":"15.06396056","SITE":"AFETR","PERIOD":"95.592","OBJECT_NAME":"STARLINK-1397","MEAN_MOTION_DDOT":"0.0000000000000","ELEMENT_SET_NO":"999","BSTAR":"0.00012851000000","DECAY_DATE":null,"RCS_SIZE":"LARGE","TLE_LINE1":"1 45682U 20035AB  22272.77845540  .00001633  00000-0  12851-3 0  9993","GP_ID":"213832485","TLE_LINE2":"2 45682  53.0559 299.1127 0001279  71.9217 288.1911 15.06396056129419","MEAN_ANOMALY":"288.1911"},{"SEMIMAJOR_AXIS":"6925.382","INCLINATION":"53.0537","MEAN_ELEMENT_THEORY":"SGP4","COUNTRY_CODE":"US","NORAD_CAT_ID":"45683","FILE":"3586894","ARG_OF_PERICENTER":"60.8280","ECCENTRICITY":"0.00012290","LAUNCH_DATE":"2020-06-04","OBJECT_TYPE":"PAYLOAD","CLASSIFICATION_TYPE":"U","EPOCH":"2022-09-29T08:41:12.181056","RA_OF_ASC_NODE":"300.9714","APOAPSIS":"548.098","CENTER_NAME":"EARTH","REF_FRAME":"TEME","PERIAPSIS":"546.396","TIME_SYSTEM":"UTC","REV_AT_EPOCH":"12936","MEAN_MOTION_DOT":"0.00000275","EPHEMERIS_TYPE":"0","MEAN_ANOMALY":"299.2832","TLE_LINE2":"2 45683  53.0537 300.9714 0001229  60.8280 299.2832 15.06389056129362","TLE_LINE1":"1 45683U 20035AC  22272.36194654  .00000275  00000-0  37391-4 0  9990","GP_ID":"213802312","RCS_SIZE":"LARGE","DECAY_DATE":null,"BSTAR":"0.00003739100000","ELEMENT_SET_NO":"999","OBJECT_NAME":"STARLINK-1399","MEAN_MOTION_DDOT":"0.0000000000000","SITE":"AFETR","PERIOD":"95.593","MEAN_MOTION":"15.06389056","OBJECT_ID":"2020-035AC"},{"OBJECT_ID":"2020-035AD","BSTAR":"0.00016437000000","MEAN_MOTION":"15.06402107","PERIOD":"95.592","SITE":"AFETR","OBJECT_NAME":"STARLINK-1401","MEAN_MOTION_DDOT":"0.0000000000000","ELEMENT_SET_NO":"999","RCS_SIZE":"LARGE","DECAY_DATE":null,"MEAN_ANOMALY":"307.7042","GP_ID":"213811703","TLE_LINE1":"1 45684U 20035AD  22272.80425888  .00002168  00000-0  16437-3 0  9996","TLE_LINE2":"2 45684  53.0555 299.0002 0001639  52.4095 307.7042 15.06402107129021","PERIAPSIS":"546.072","REF_FRAME":"TEME","CENTER_NAME":"EARTH","APOAPSIS":"548.342","EPHEMERIS_TYPE":"0","REV_AT_EPOCH":"12902","MEAN_MOTION_DOT":"0.00002168","TIME_SYSTEM":"UTC","OBJECT_TYPE":"PAYLOAD","LAUNCH_DATE":"2020-06-04","RA_OF_ASC_NODE":"299.0002","EPOCH":"2022-09-29T19:18:07.967232","CLASSIFICATION_TYPE":"U","FILE":"3587003","ECCENTRICITY":"0.00016390","ARG_OF_PERICENTER":"52.4095","MEAN_ELEMENT_THEORY":"SGP4","INCLINATION":"53.0555","SEMIMAJOR_AXIS":"6925.342","NORAD_CAT_ID":"45684","COUNTRY_CODE":"US"},{"FILE":"3586417","ECCENTRICITY":"0.00066970","ARG_OF_PERICENTER":"54.0274","MEAN_ELEMENT_THEORY":"SGP4","SEMIMAJOR_AXIS":"6920.479","INCLINATION":"53.0542","NORAD_CAT_ID":"45685","COUNTRY_CODE":"US","PERIAPSIS":"537.709","REF_FRAME":"TEME","CENTER_NAME":"EARTH","APOAPSIS":"546.979","EPHEMERIS_TYPE":"0","REV_AT_EPOCH":"12892","MEAN_MOTION_DOT":"0.00407496","TIME_SYSTEM":"UTC","OBJECT_TYPE":"PAYLOAD","LAUNCH_DATE":"2020-06-04","EPOCH":"2022-09-29T04:51:50.960160","CLASSIFICATION_TYPE":"U","RA_OF_ASC_NODE":"301.7001","RCS_SIZE":"LARGE","DECAY_DATE":null,"MEAN_ANOMALY":"306.1336","GP_ID":"213771892","TLE_LINE1":"1 45685U 20035AE  22272.20267315  .00407496  00000-0  24746-1 0  9993","TLE_LINE2":"2 45685  53.0542 301.7001 0006697  54.0274 306.1336 15.07990253128926","OBJECT_ID":"2020-035AE","BSTAR":"0.02474600000000","MEAN_MOTION":"15.07990253","PERIOD":"95.491","SITE":"AFETR","OBJECT_NAME":"STARLINK-1402","MEAN_MOTION_DDOT":"0.0000000000000","ELEMENT_SET_NO":"999"},{"SITE":"AFETR","PERIOD":"95.593","MEAN_MOTION":"15.06393795","ELEMENT_SET_NO":"999","MEAN_MOTION_DDOT":"0.0000000000000","OBJECT_NAME":"STARLINK-1404","BSTAR":"-0.00001501500000","OBJECT_ID":"2020-035AF","TLE_LINE2":"2 45686  53.0542 300.5315 0001442  82.0993 278.0159 15.06393795128976","TLE_LINE1":"1 45686U 20035AF  22272.46146369 -.00000505  00000-0 -15015-4 0  9991","GP_ID":"213778327","MEAN_ANOMALY":"278.0159","DECAY_DATE":null,"RCS_SIZE":"LARGE","RA_OF_ASC_NODE":"300.5315","EPOCH":"2022-09-29T11:04:30.462816","CLASSIFICATION_TYPE":"U","OBJECT_TYPE":"PAYLOAD","LAUNCH_DATE":"2020-06-04","MEAN_MOTION_DOT":"-0.00000505","REV_AT_EPOCH":"12897","EPHEMERIS_TYPE":"0","TIME_SYSTEM":"UTC","REF_FRAME":"TEME","PERIAPSIS":"546.234","APOAPSIS":"548.231","CENTER_NAME":"EARTH","NORAD_CAT_ID":"45686","COUNTRY_CODE":"US","MEAN_ELEMENT_THEORY":"SGP4","SEMIMAJOR_AXIS":"6925.368","INCLINATION":"53.0542","ECCENTRICITY":"0.00014420","ARG_OF_PERICENTER":"82.0993","FILE":"3586711"},{"MEAN_MOTION":"15.08013601","SITE":"AFETR","PERIOD":"95.490","OBJECT_NAME":"STARLINK-1408","MEAN_MOTION_DDOT":"0.0000000000000","ELEMENT_SET_NO":"999","BSTAR":"0.00074726000000","OBJECT_ID":"2020-035AH","TLE_LINE1":"1 45688U 20035AH  22272.35981438  .00011362  00000-0  74726-3 0  9999","GP_ID":"213801814","TLE_LINE2":"2 45688  53.0552 300.7050 0000883  43.2154 316.8905 15.08013601129364","MEAN_ANOMALY":"316.8905","DECAY_DATE":null,"RCS_SIZE":"LARGE","CLASSIFICATION_TYPE":"U","EPOCH":"2022-09-29T08:38:07.962432","RA_OF_ASC_NODE":"300.7050","OBJECT_TYPE":"PAYLOAD","LAUNCH_DATE":"2020-06-04","EPHEMERIS_TYPE":"0","REV_AT_EPOCH":"12936","MEAN_MOTION_DOT":"0.00011362","TIME_SYSTEM":"UTC","PERIAPSIS":"541.661","REF_FRAME":"TEME","CENTER_NAME":"EARTH","APOAPSIS":"542.884","NORAD_CAT_ID":"45688","COUNTRY_CODE":"US","MEAN_ELEMENT_THEORY":"SGP4","INCLINATION":"53.0552","SEMIMAJOR_AXIS":"6920.408","ECCENTRICITY":"0.00008830","ARG_OF_PERICENTER":"43.2154","FILE":"3586894"}];
